{
  "type": "FeatureCollection",
  "features": [
    {
      "type": "Feature",
      "properties": {
        "norad_id": 32214,
        "name": "FENGYUN 1C DEB",
        "group": "fengyun-1c-debris",
        "lat": 79.01541868183098,
        "lon": -52.37072824426424,
        "alt_km": 788.0531570380963,
        "timestamp": "2025-12-02T21:34:01.557010+00:00",
        "meta_object_name": "FENGYUN 1C DEB",
        "meta_object_id": "1999-025CVL",
        "meta_epoch": "2025-12-01T20:05:20.492736",
        "meta_mean_motion": 13.90341158,
        "meta_eccentricity": 0.01892423,
        "meta_inclination": 99.0449,
        "meta_ra_of_asc_node": 1.7447,
        "meta_arg_of_pericenter": 68.9322,
        "meta_mean_anomaly": 103.5509,
        "meta_ephemeris_type": 0,
        "meta_classification_type": "U",
        "meta_norad_cat_id": 32214,
        "meta_element_set_no": 999,
        "meta_rev_at_epoch": 62270,
        "meta_bstar": 0.004839763,
        "meta_mean_motion_dot": 6.9e-05,
        "meta_mean_motion_ddot": 0,
        "tle_line1": "1 32214U 99025CVL 25335.83704274  .00006900  00000+0  48398-2 0  9998",
        "tle_line2": "2 32214  99.0449   1.7447 0189242  68.9322 103.5509 13.90341158622703"
      },
      "geometry": {
        "type": "Point",
        "coordinates": [
          -52.37072824426424,
          79.01541868183098
        ]
      }
    },
    {
      "type": "Feature",
      "properties": {
        "norad_id": 32218,
        "name": "FENGYUN 1C DEB",
        "group": "fengyun-1c-debris",
        "lat": 4.37004396143139,
        "lon": -9.099488458411512,
        "alt_km": 701.2180002575606,
        "timestamp": "2025-12-02T21:34:01.557020+00:00",
        "meta_object_name": "FENGYUN 1C DEB",
        "meta_object_id": "1999-025CVQ",
        "meta_epoch": "2025-12-02T09:45:23.156064",
        "meta_mean_motion": 14.55371327,
        "meta_eccentricity": 0.0063109,
        "meta_inclination": 98.8121,
        "meta_ra_of_asc_node": 169.7024,
        "meta_arg_of_pericenter": 98.601,
        "meta_mean_anomaly": 19.3079,
        "meta_ephemeris_type": 0,
        "meta_classification_type": "U",
        "meta_norad_cat_id": 32218,
        "meta_element_set_no": 999,
        "meta_rev_at_epoch": 96082,
        "meta_bstar": 0.00094721,
        "meta_mean_motion_dot": 4.172e-05,
        "meta_mean_motion_ddot": 0,
        "tle_line1": "1 32218U 99025CVQ 25336.40651801  .00004172  00000+0  94721-3 0  9994",
        "tle_line2": "2 32218  98.8121 169.7024 0063109  98.6010  19.3079 14.55371327960821"
      },
      "geometry": {
        "type": "Point",
        "coordinates": [
          -9.099488458411512,
          4.37004396143139
        ]
      }
    },
    {
      "type": "Feature",
      "properties": {
        "norad_id": 32221,
        "name": "FENGYUN 1C DEB",
        "group": "fengyun-1c-debris",
        "lat": -48.94185789355775,
        "lon": 136.474916670642,
        "alt_km": 776.2556931879535,
        "timestamp": "2025-12-02T21:34:01.557030+00:00",
        "meta_object_name": "FENGYUN 1C DEB",
        "meta_object_id": "1999-025CVT",
        "meta_epoch": "2025-12-02T08:37:46.198272",
        "meta_mean_motion": 14.58616548,
        "meta_eccentricity": 0.0146513,
        "meta_inclination": 98.5645,
        "meta_ra_of_asc_node": 125.9566,
        "meta_arg_of_pericenter": 177.6443,
        "meta_mean_anomaly": 182.5478,
        "meta_ephemeris_type": 0,
        "meta_classification_type": "U",
        "meta_norad_cat_id": 32221,
        "meta_element_set_no": 999,
        "meta_rev_at_epoch": 97046,
        "meta_bstar": 0.00060943,
        "meta_mean_motion_dot": 3.237e-05,
        "meta_mean_motion_ddot": 0,
        "tle_line1": "1 32221U 99025CVT 25336.35956248  .00003237  00000+0  60943-3 0  9995",
        "tle_line2": "2 32221  98.5645 125.9566 0146513 177.6443 182.5478 14.58616548970464"
      },
      "geometry": {
        "type": "Point",
        "coordinates": [
          136.474916670642,
          -48.94185789355775
        ]
      }
    },
    {
      "type": "Feature",
      "properties": {
        "norad_id": 32223,
        "name": "FENGYUN 1C DEB",
        "group": "fengyun-1c-debris",
        "lat": 79.7300658744373,
        "lon": -64.84732387798238,
        "alt_km": 825.4865373821467,
        "timestamp": "2025-12-02T21:34:01.557041+00:00",
        "meta_object_name": "FENGYUN 1C DEB",
        "meta_object_id": "1999-025CVV",
        "meta_epoch": "2025-11-30T11:44:46.391712",
        "meta_mean_motion": 14.20788373,
        "meta_eccentricity": 0.00466055,
        "meta_inclination": 98.8399,
        "meta_ra_of_asc_node": 53.5518,
        "meta_arg_of_pericenter": 354.1065,
        "meta_mean_anomaly": 24.7896,
        "meta_ephemeris_type": 0,
        "meta_classification_type": "U",
        "meta_norad_cat_id": 32223,
        "meta_element_set_no": 999,
        "meta_rev_at_epoch": 64050,
        "meta_bstar": 0.0013650533,
        "meta_mean_motion_dot": 2.935e-05,
        "meta_mean_motion_ddot": 0,
        "tle_line1": "1 32223U 99025CVV 25334.48942583  .00002935  00000+0  13651-2 0  9993",
        "tle_line2": "2 32223  98.8399  53.5518 0046605 354.1065  24.7896 14.20788373640506"
      },
      "geometry": {
        "type": "Point",
        "coordinates": [
          -64.84732387798238,
          79.7300658744373
        ]
      }
    },
    {
      "type": "Feature",
      "properties": {
        "norad_id": 32224,
        "name": "FENGYUN 1C DEB",
        "group": "fengyun-1c-debris",
        "lat": 75.81715054470234,
        "lon": 146.27646392645764,
        "alt_km": 716.297289445195,
        "timestamp": "2025-12-02T21:34:01.557051+00:00",
        "meta_object_name": "FENGYUN 1C DEB",
        "meta_object_id": "1999-025CVW",
        "meta_epoch": "2025-12-02T07:42:20.079072",
        "meta_mean_motion": 14.33989885,
        "meta_eccentricity": 0.0077143,
        "meta_inclination": 98.9822,
        "meta_ra_of_asc_node": 286.9314,
        "meta_arg_of_pericenter": 96.5488,
        "meta_mean_anomaly": 264.4485,
        "meta_ephemeris_type": 0,
        "meta_classification_type": "U",
        "meta_norad_cat_id": 32224,
        "meta_element_set_no": 999,
        "meta_rev_at_epoch": 95574,
        "meta_bstar": 0.00039199,
        "meta_mean_motion_dot": 1.084e-05,
        "meta_mean_motion_ddot": 0,
        "tle_line1": "1 32224U 99025CVW 25336.32106573  .00001084  00000+0  39199-3 0  9990",
        "tle_line2": "2 32224  98.9822 286.9314 0077143  96.5488 264.4485 14.33989885955749"
      },
      "geometry": {
        "type": "Point",
        "coordinates": [
          146.27646392645764,
          75.81715054470234
        ]
      }
    },
    {
      "type": "Feature",
      "properties": {
        "norad_id": 32225,
        "name": "FENGYUN 1C DEB",
        "group": "fengyun-1c-debris",
        "lat": 74.83616678954651,
        "lon": -10.815654731628962,
        "alt_km": 889.0883576370288,
        "timestamp": "2025-12-02T21:34:01.557061+00:00",
        "meta_object_name": "FENGYUN 1C DEB",
        "meta_object_id": "1999-025CVX",
        "meta_epoch": "2025-12-02T09:17:58.335936",
        "meta_mean_motion": 14.13030511,
        "meta_eccentricity": 0.0071322,
        "meta_inclination": 99.0934,
        "meta_ra_of_asc_node": 24.8898,
        "meta_arg_of_pericenter": 235.8131,
        "meta_mean_anomaly": 123.6266,
        "meta_ephemeris_type": 0,
        "meta_classification_type": "U",
        "meta_norad_cat_id": 32225,
        "meta_element_set_no": 999,
        "meta_rev_at_epoch": 67970,
        "meta_bstar": 0.00030098,
        "meta_mean_motion_dot": 5.29e-06,
        "meta_mean_motion_ddot": 0,
        "tle_line1": "1 32225U 99025CVX 25336.38748074  .00000529  00000+0  30098-3 0  9997",
        "tle_line2": "2 32225  99.0934  24.8898 0071322 235.8131 123.6266 14.13030511679701"
      },
      "geometry": {
        "type": "Point",
        "coordinates": [
          -10.815654731628962,
          74.83616678954651
        ]
      }
    },
    {
      "type": "Feature",
      "properties": {
        "norad_id": 32230,
        "name": "FENGYUN 1C DEB",
        "group": "fengyun-1c-debris",
        "lat": -15.654051309182531,
        "lon": -56.61441245182316,
        "alt_km": 702.7334654576762,
        "timestamp": "2025-12-02T21:34:01.557071+00:00",
        "meta_object_name": "FENGYUN 1C DEB",
        "meta_object_id": "1999-025CWC",
        "meta_epoch": "2025-11-30T09:24:55.537344",
        "meta_mean_motion": 14.55588472,
        "meta_eccentricity": 0.00526929,
        "meta_inclination": 98.8709,
        "meta_ra_of_asc_node": 123.2328,
        "meta_arg_of_pericenter": 127.3302,
        "meta_mean_anomaly": 261.6517,
        "meta_ephemeris_type": 0,
        "meta_classification_type": "U",
        "meta_norad_cat_id": 32230,
        "meta_element_set_no": 999,
        "meta_rev_at_epoch": 60490,
        "meta_bstar": 0.0036213421,
        "meta_mean_motion_dot": 0.00016074,
        "meta_mean_motion_ddot": 0,
        "tle_line1": "1 32230U 99025CWC 25334.39230946  .00016074  00000+0  36213-2 0  9992",
        "tle_line2": "2 32230  98.8709 123.2328 0052692 127.3302 261.6517 14.55588472604902"
      },
      "geometry": {
        "type": "Point",
        "coordinates": [
          -56.61441245182316,
          -15.654051309182531
        ]
      }
    }
  ]
}